{
  "type": "FeatureCollection",
  "features": [
    {
      "type": "Feature",
      "properties": {
        "norad_id": 54259,
        "name": "EUTELSAT 10B",
        "group": "eutelsat",
        "lat": -0.025529625550388246,
        "lon": 53.31523408355913,
        "alt_km": 35783.50871061582,
        "timestamp": "2025-12-23T20:42:36.743812+00:00",
        "meta_object_name": "EUTELSAT 10B",
        "meta_object_id": "2022-157A",
        "meta_epoch": "2025-12-23T01:11:43.653984",
        "meta_mean_motion": 1.00272927,
        "meta_eccentricity": 7.192e-05,
        "meta_inclination": 0.061,
        "meta_ra_of_asc_node": 96.1012,
        "meta_arg_of_pericenter": 1.3181,
        "meta_mean_anomaly": 22.3816,
        "meta_ephemeris_type": 0,
        "meta_classification_type": "U",
        "meta_norad_cat_id": 54259,
        "meta_element_set_no": 999,
        "meta_rev_at_epoch": 1126,
        "meta_bstar": 0,
        "meta_mean_motion_dot": 9e-07,
        "meta_mean_motion_ddot": 0,
        "tle_line1": "1 54259U 22157A   25357.04981081  .00000090  00000+0  00000+0 0  9992",
        "tle_line2": "2 54259   0.0610  96.1012 0000719   1.3181  22.3816  1.00272927 11266"
      },
      "geometry": {
        "type": "Point",
        "coordinates": [
          53.31523408355913,
          -0.025529625550388246
        ]
      }
    },
    {
      "type": "Feature",
      "properties": {
        "norad_id": 59346,
        "name": "EUTELSAT 36D",
        "group": "eutelsat",
        "lat": 0.033454805672822226,
        "lon": 79.16801315065912,
        "alt_km": 35785.341477534326,
        "timestamp": "2025-12-23T20:42:36.743824+00:00",
        "meta_object_name": "EUTELSAT 36D",
        "meta_object_id": "2024-059A",
        "meta_epoch": "2025-12-23T04:44:34.558080",
        "meta_mean_motion": 1.00272355,
        "meta_eccentricity": 3.386e-05,
        "meta_inclination": 0.0179,
        "meta_ra_of_asc_node": 31.8339,
        "meta_arg_of_pericenter": 337.3972,
        "meta_mean_anomaly": 189.7731,
        "meta_ephemeris_type": 0,
        "meta_classification_type": "U",
        "meta_norad_cat_id": 59346,
        "meta_element_set_no": 999,
        "meta_rev_at_epoch": 638,
        "meta_bstar": 0,
        "meta_mean_motion_dot": 1.77e-06,
        "meta_mean_motion_ddot": 0,
        "tle_line1": "1 59346U 24059A   25357.19762220  .00000177  00000+0  00000+0 0  9991",
        "tle_line2": "2 59346   0.0179  31.8339 0000338 337.3972 189.7731  1.00272355  6389"
      },
      "geometry": {
        "type": "Point",
        "coordinates": [
          79.16801315065912,
          0.033454805672822226
        ]
      }
    }
  ]
}